COSMOS 2242             
1 22626U 93024A   26113.56434823  .00001381  00000+0  11824-3 0  9995
2 22626  82.5204 223.7874 0017116 150.4546 209.7647 14.96734954787105
SL-16 R/B               
1 22803U 93059B   26113.64877615 -.00000048  00000+0 -22264-6 0  9993
2 22803  70.9891 276.3148 0015948 148.1613 212.0478 14.17238093685903
ARIANE 40 R/B           
1 22830U 93061H   26114.15789317  .00000145  00000+0  68687-4 0  9997
2 22830  98.4846 182.1305 0011536 144.9089 215.2858 14.32883595700610
COSMOS 2278             
1 23087U 94023A   26114.14372134  .00000243  00000+0  15154-3 0  9994
2 23087  71.0531  79.9964 0010398 309.9820  50.0389 14.14386391651237
SL-16 R/B               
1 23088U 94023B   26114.02828968 -.00000136  00000+0 -45414-4 0  9999
2 23088  71.0002 335.6738 0005241 244.1957 115.8625 14.15015471652507
SL-16 R/B               
1 23343U 94074B   26114.10963138  .00000282  00000+0  44362-4 0  9998
2 23343  97.7040 143.0735 0008056  77.1184 348.8262 14.79454388693963
SL-16 R/B               
1 23405U 94077B   26113.63891443  .00000170  00000+0  11144-3 0  9993
2 23405  70.9824 257.9202 0000548 132.8081 227.3088 14.15571583622597
ARIANE 40+ R/B          
1 23561U 95021B   26114.12119409  .00000173  00000+0  69169-4 0  9990
2 23561  98.4432 184.9718 0006839  17.0255  11.7507 14.39802201625782
SL-16 R/B               
1 23705U 95058B   26114.14274866 -.00000106  00000+0 -30025-4 0  9998
2 23705  71.0204  84.8252 0010872  41.8265 318.3687 14.15505226574289
SL-16 R/B               
1 24298U 96051B   26114.13726262  .00000083  00000+0  71552-4 0  9993
2 24298  70.7598  79.0420 0012494  69.5316 290.7143 14.12427284528067
ORBVIEW 2 (SEASTAR)     
1 24883U 97037A   26114.00252448  .00000188  00000+0  81600-4 0  9995
2 24883  98.8640 279.5329 0001130 298.6380  61.4691 14.35523971514973
SL-16 R/B               
1 25400U 98043G   26113.63598477  .00000041  00000+0  36337-4 0  9997
2 25400  98.8323  67.3393 0008851 241.5249 118.5040 14.26059338445391
